{
"type": "FeatureCollection",
"name": "Delineasi_SUTET_26",
"crs": { "type": "name", "properties": { "name": "urn:ogc:def:crs:EPSG::32748" } },
"features": [
{ "type": "Feature", "properties": { "Id": 1, "PERSIL": 287, "NAMOBJ": "Delineasi Survey", "KELURAHAN": "Cipayung", "HECTARE": 4.8346045554500003 }, "geometry": { "type": "MultiPolygon", "coordinates": [ [ [ [ 698252.0045, 9290144.2905 ], [ 698250.3374, 9290128.5565 ], [ 698248.0976, 9290114.8137 ], [ 698242.8916, 9290082.8722 ], [ 698226.6737, 9290087.7496 ], [ 698223.2161, 9290073.7334 ], [ 698195.2675, 9290081.8702 ], [ 698193.8221, 9290076.7931 ], [ 698160.0295, 9290088.6265 ], [ 698168.2215, 9290126.2485 ], [ 698177.6473, 9290134.7347 ], [ 698178.0778, 9290151.9479 ], [ 698081.4103, 9290169.3032 ], [ 698091.1449, 9290195.0714 ], [ 698080.6904, 9290193.8281 ], [ 698081.893, 9290222.677 ], [ 698095.264, 9290221.9987 ], [ 698126.4246, 9290219.4686 ], [ 698131.7405, 9290268.4238 ], [ 698118.8275, 9290269.0536 ], [ 698128.33, 9290298.7444 ], [ 698122.0155, 9290360.0311 ], [ 698153.1971, 9290363.5012 ], [ 698155.6403, 9290399.704 ], [ 698155.3192, 9290428.3374 ], [ 698161.5084, 9290451.6848 ], [ 698169.222, 9290518.9634 ], [ 698173.5763, 9290539.4411 ], [ 698179.9448, 9290544.4648 ], [ 698201.8718, 9290551.3357 ], [ 698207.1433, 9290537.2079 ], [ 698222.9149, 9290518.9048 ], [ 698234.3695, 9290493.7586 ], [ 698251.3687, 9290492.4243 ], [ 698246.7658, 9290458.9045 ], [ 698243.0264, 9290412.3434 ], [ 698247.1186, 9290379.2395 ], [ 698246.8347, 9290339.3453 ], [ 698250.0286, 9290310.7493 ], [ 698256.7566, 9290268.8048 ], [ 698254.7748, 9290246.7615 ], [ 698252.2046, 9290229.2151 ], [ 698236.5171, 9290186.8812 ], [ 698255.3971, 9290181.5184 ], [ 698255.3278, 9290175.6552 ], [ 698281.2295, 9290168.274 ], [ 698278.3104, 9290158.756 ], [ 698254.3682, 9290166.5987 ], [ 698252.0045, 9290144.2905 ] ] ] ] } },
{ "type": "Feature", "properties": { "Id": 2, "PERSIL": 33, "NAMOBJ": "Delineasi Survey", "KELURAHAN": "Cipayung", "HECTARE": 1.26151908209 }, "geometry": { "type": "MultiPolygon", "coordinates": [ [ [ [ 698338.9998, 9290628.7804 ], [ 698425.2251, 9290462.7627 ], [ 698411.9998, 9290458.6708 ], [ 698402.8031, 9290455.0987 ], [ 698397.4383, 9290466.2669 ], [ 698387.9614, 9290471.7904 ], [ 698375.2999, 9290468.2237 ], [ 698363.4661, 9290499.8075 ], [ 698333.847, 9290492.1026 ], [ 698329.0307, 9290512.7547 ], [ 698327.5876, 9290524.5216 ], [ 698324.7705, 9290529.2653 ], [ 698295.6101, 9290526.8711 ], [ 698275.2769, 9290565.2472 ], [ 698254.4128, 9290610.7348 ], [ 698271.5862, 9290611.0296 ], [ 698269.7565, 9290625.5622 ], [ 698286.4449, 9290623.1216 ], [ 698299.8184, 9290622.5772 ], [ 698323.8109, 9290623.0316 ], [ 698338.9998, 9290628.7804 ] ] ] ] } },
{ "type": "Feature", "properties": { "Id": 3, "PERSIL": 68, "NAMOBJ": "Delineasi Survey", "KELURAHAN": "Cipayung", "HECTARE": 0.99248075336999997 }, "geometry": { "type": "MultiPolygon", "coordinates": [ [ [ [ 698381.2716, 9290615.8523 ], [ 698390.9073, 9290617.8526 ], [ 698396.0693, 9290605.1451 ], [ 698402.529, 9290601.0329 ], [ 698425.4328, 9290604.3553 ], [ 698419.5081, 9290637.139 ], [ 698459.4061, 9290637.0517 ], [ 698463.1965, 9290611.9213 ], [ 698463.6142, 9290572.3073 ], [ 698465.3762, 9290561.7826 ], [ 698480.7554, 9290563.2025 ], [ 698487.043, 9290542.4877 ], [ 698480.1944, 9290473.1211 ], [ 698446.8568, 9290468.7554 ], [ 698423.3469, 9290512.0349 ], [ 698430.6649, 9290535.5042 ], [ 698406.7952, 9290546.3712 ], [ 698406.076, 9290553.7438 ], [ 698400.8483, 9290562.7743 ], [ 698385.9277, 9290582.2877 ], [ 698379.6599, 9290595.2136 ], [ 698381.2716, 9290615.8523 ] ] ] ] } },
{ "type": "Feature", "properties": { "Id": 4, "PERSIL": 122, "NAMOBJ": "Delineasi Survey", "KELURAHAN": "Ratu Jaya", "HECTARE": 5.1160151325400003 }, "geometry": { "type": "MultiPolygon", "coordinates": [ [ [ [ 701101.0442, 9290361.9046 ], [ 701086.6434, 9290329.8405 ], [ 701075.7959, 9290329.0228 ], [ 701075.0444, 9290325.8944 ], [ 701078.2593, 9290304.5006 ], [ 701075.3778, 9290258.9673 ], [ 701035.561, 9290255.9505 ], [ 700996.0979, 9290241.9606 ], [ 700953.3118, 9290240.1386 ], [ 700956.432, 9290284.8661 ], [ 700965.73, 9290308.5183 ], [ 700974.0843, 9290327.1225 ], [ 700956.1292, 9290333.6018 ], [ 700925.4092, 9290329.8935 ], [ 700895.5931, 9290329.9992 ], [ 700895.4874, 9290300.183 ], [ 700871.9068, 9290302.7737 ], [ 700869.663, 9290290.7169 ], [ 700820.9367, 9290308.3736 ], [ 700793.024, 9290324.9204 ], [ 700745.4496, 9290343.4727 ], [ 700776.5737, 9290438.5268 ], [ 700811.4785, 9290520.2949 ], [ 700955.7862, 9290488.0205 ], [ 700955.6481, 9290449.0522 ], [ 700956.8458, 9290440.688 ], [ 700974.6356, 9290437.3209 ], [ 700978.0905, 9290417.1935 ], [ 700981.0655, 9290386.5679 ], [ 701019.6579, 9290379.4811 ], [ 701033.3376, 9290363.2544 ], [ 701101.0442, 9290361.9046 ] ] ] ] } }
]
}
